{
"type": "FeatureCollection",
"name": "n_quadras_web_4326",
"crs": { "type": "name", "properties": { "name": "urn:ogc:def:crs:OGC:1.3:CRS84" } },
"features": [
{ "type": "Feature", "properties": { "fid": 8252, "handle": 679905, "block": -1, "etype": 19, "space": 0, "layer": "N-QUADRAS", "olinetype": "bylayer", "linetype": "", "color": "0,0,0,255", "ocolor": 256, "color24": -1, "transparency": 0, "lweight": -1, "linewidth": 0.0, "ltscale": 1.0, "visible": 1, "thickness": 0.0, "ext": "(3:0,0,1)", "height": 6.7876500276883824, "text": "46", "angle": -0.20855290235409457, "widthscale": 0.0, "oblique": 0.0, "style": "Legend", "textgen": 1, "alignh": 0, "alignv": 1, "interlin": 1.0 }, "geometry": { "type": "Point", "coordinates": [ -40.357996456927545, -20.429243326993866, 0.0 ] } },
{ "type": "Feature", "properties": { "fid": 8253, "handle": 680198, "block": -1, "etype": 19, "space": 0, "layer": "N-QUADRAS", "olinetype": "bylayer", "linetype": "", "color": "0,0,0,255", "ocolor": 256, "color24": -1, "transparency": 0, "lweight": -1, "linewidth": 0.0, "ltscale": 1.0, "visible": 1, "thickness": 0.0, "ext": "(3:0,0,1)", "height": 6.7876500276883824, "text": "47", "angle": -0.20855290235409457, "widthscale": 0.0, "oblique": 0.0, "style": "Legend", "textgen": 1, "alignh": 0, "alignv": 1, "interlin": 1.0 }, "geometry": { "type": "Point", "coordinates": [ -40.35842242175034, -20.428657808194142, 0.0 ] } },
{ "type": "Feature", "properties": { "fid": 8254, "handle": 680622, "block": -1, "etype": 19, "space": 0, "layer": "N-QUADRAS", "olinetype": "bylayer", "linetype": "", "color": "0,0,0,255", "ocolor": 256, "color24": -1, "transparency": 0, "lweight": -1, "linewidth": 0.0, "ltscale": 1.0, "visible": 1, "thickness": 0.0, "ext": "(3:0,0,1)", "height": 6.7876500276883824, "text": "28", "angle": -0.20855290235409457, "widthscale": 0.0, "oblique": 0.0, "style": "Legend", "textgen": 1, "alignh": 0, "alignv": 1, "interlin": 1.0 }, "geometry": { "type": "Point", "coordinates": [ -40.359975702161442, -20.428826301669499, 0.0 ] } },
{ "type": "Feature", "properties": { "fid": 8255, "handle": 680762, "block": -1, "etype": 19, "space": 0, "layer": "N-QUADRAS", "olinetype": "bylayer", "linetype": "", "color": "0,0,0,255", "ocolor": 256, "color24": -1, "transparency": 0, "lweight": -1, "linewidth": 0.0, "ltscale": 1.0, "visible": 1, "thickness": 0.0, "ext": "(3:0,0,1)", "height": 6.7876500276883824, "text": "48", "angle": -0.20855290235409457, "widthscale": 0.0, "oblique": 0.0, "style": "Legend", "textgen": 1, "alignh": 0, "alignv": 1, "interlin": 1.0 }, "geometry": { "type": "Point", "coordinates": [ -40.358777925693147, -20.428093514874977, 0.0 ] } },
{ "type": "Feature", "properties": { "fid": 8256, "handle": 680902, "block": -1, "etype": 19, "space": 0, "layer": "N-QUADRAS", "olinetype": "bylayer", "linetype": "", "color": "0,0,0,255", "ocolor": 256, "color24": -1, "transparency": 0, "lweight": -1, "linewidth": 0.0, "ltscale": 1.0, "visible": 1, "thickness": 0.0, "ext": "(3:0,0,1)", "height": 6.7876500276883824, "text": "67", "angle": -0.20855290235409452, "widthscale": 0.0, "oblique": 0.0, "style": "Legend", "textgen": 1, "alignh": 0, "alignv": 1, "interlin": 1.0 }, "geometry": { "type": "Point", "coordinates": [ -40.357537535468175, -20.427343743677149, 0.0 ] } },
{ "type": "Feature", "properties": { "fid": 8257, "handle": 681042, "block": -1, "etype": 19, "space": 0, "layer": "N-QUADRAS", "olinetype": "byblock", "linetype": "", "color": "0,0,0,255", "ocolor": 256, "color24": -1, "transparency": 0, "lweight": -1, "linewidth": 0.0, "ltscale": 1.0, "visible": 1, "thickness": 0.0, "ext": "(3:0,0,1)", "height": 6.7876500276883824, "text": "84", "angle": -0.20855290235409457, "widthscale": 0.0, "oblique": 0.0, "style": "Legend", "textgen": 1, "alignh": 0, "alignv": 1, "interlin": 1.0 }, "geometry": { "type": "Point", "coordinates": [ -40.356343126840663, -20.426615280016605, 0.0 ] } },
{ "type": "Feature", "properties": { "fid": 8258, "handle": 681177, "block": -1, "etype": 19, "space": 0, "layer": "N-QUADRAS", "olinetype": "bylayer", "linetype": "", "color": "0,0,0,255", "ocolor": 256, "color24": -1, "transparency": 0, "lweight": -1, "linewidth": 0.0, "ltscale": 1.0, "visible": 1, "thickness": 0.0, "ext": "(3:0,0,1)", "height": 6.7876500276883824, "text": "29", "angle": -0.20855290235409457, "widthscale": 0.0, "oblique": 0.0, "style": "Legend", "textgen": 1, "alignh": 0, "alignv": 1, "interlin": 1.0 }, "geometry": { "type": "Point", "coordinates": [ -40.360346526347946, -20.428265608629772, 0.0 ] } },
{ "type": "Feature", "properties": { "fid": 8259, "handle": 681317, "block": -1, "etype": 19, "space": 0, "layer": "N-QUADRAS", "olinetype": "bylayer", "linetype": "", "color": "0,0,0,255", "ocolor": 256, "color24": -1, "transparency": 0, "lweight": -1, "linewidth": 0.0, "ltscale": 1.0, "visible": 1, "thickness": 0.0, "ext": "(3:0,0,1)", "height": 6.7876500276883824, "text": "49", "angle": -0.20855290235409457, "widthscale": 0.0, "oblique": 0.0, "style": "Legend", "textgen": 1, "alignh": 0, "alignv": 1, "interlin": 1.0 }, "geometry": { "type": "Point", "coordinates": [ -40.359151044027023, -20.427542309998167, 0.0 ] } },
{ "type": "Feature", "properties": { "fid": 8260, "handle": 681457, "block": -1, "etype": 19, "space": 0, "layer": "N-QUADRAS", "olinetype": "bylayer", "linetype": "", "color": "0,0,0,255", "ocolor": 256, "color24": -1, "transparency": 0, "lweight": -1, "linewidth": 0.0, "ltscale": 1.0, "visible": 1, "thickness": 0.0, "ext": "(3:0,0,1)", "height": 6.7876500276883824, "text": "68", "angle": -0.20855290235409452, "widthscale": 0.0, "oblique": 0.0, "style": "Legend", "textgen": 1, "alignh": 0, "alignv": 1, "interlin": 1.0 }, "geometry": { "type": "Point", "coordinates": [ -40.357904463222646, -20.42679128933495, 0.0 ] } },
{ "type": "Feature", "properties": { "fid": 8261, "handle": 681597, "block": -1, "etype": 19, "space": 0, "layer": "N-QUADRAS", "olinetype": "byblock", "linetype": "", "color": "0,0,0,255", "ocolor": 256, "color24": -1, "transparency": 0, "lweight": -1, "linewidth": 0.0, "ltscale": 1.0, "visible": 1, "thickness": 0.0, "ext": "(3:0,0,1)", "height": 6.7876500276883824, "text": "85", "angle": -0.20855290235409457, "widthscale": 0.0, "oblique": 0.0, "style": "Legend", "textgen": 1, "alignh": 0, "alignv": 1, "interlin": 1.0 }, "geometry": { "type": "Point", "coordinates": [ -40.356709314610917, -20.42607632119832, 0.0 ] } },
{ "type": "Feature", "properties": { "fid": 8262, "handle": 681755, "block": -1, "etype": 19, "space": 0, "layer": "N-QUADRAS", "olinetype": "bylayer", "linetype": "", "color": "0,0,0,255", "ocolor": 256, "color24": -1, "transparency": 0, "lweight": -1, "linewidth": 0.0, "ltscale": 1.0, "visible": 1, "thickness": 0.0, "ext": "(3:0,0,1)", "height": 6.7876500276883824, "text": "30", "angle": -0.20855290235409457, "widthscale": 0.0, "oblique": 0.0, "style": "Legend", "textgen": 1, "alignh": 0, "alignv": 1, "interlin": 1.0 }, "geometry": { "type": "Point", "coordinates": [ -40.360733824022148, -20.42769473328417, 0.0 ] } },
{ "type": "Feature", "properties": { "fid": 8263, "handle": 681895, "block": -1, "etype": 19, "space": 0, "layer": "N-QUADRAS", "olinetype": "bylayer", "linetype": "", "color": "0,0,0,255", "ocolor": 256, "color24": -1, "transparency": 0, "lweight": -1, "linewidth": 0.0, "ltscale": 1.0, "visible": 1, "thickness": 0.0, "ext": "(3:0,0,1)", "height": 6.7876500276883824, "text": "50", "angle": -0.20855290235409457, "widthscale": 0.0, "oblique": 0.0, "style": "Legend", "textgen": 1, "alignh": 0, "alignv": 1, "interlin": 1.0 }, "geometry": { "type": "Point", "coordinates": [ -40.359533551812177, -20.426970591112863, 0.0 ] } },
{ "type": "Feature", "properties": { "fid": 8264, "handle": 682035, "block": -1, "etype": 19, "space": 0, "layer": "N-QUADRAS", "olinetype": "byblock", "linetype": "", "color": "0,0,0,255", "ocolor": 256, "color24": -1, "transparency": 0, "lweight": -1, "linewidth": 0.0, "ltscale": 1.0, "visible": 1, "thickness": 0.0, "ext": "(3:0,0,1)", "height": 6.7876500276883824, "text": "69", "angle": -0.20855290235409452, "widthscale": 0.0, "oblique": 0.0, "style": "Legend", "textgen": 1, "alignh": 0, "alignv": 1, "interlin": 1.0 }, "geometry": { "type": "Point", "coordinates": [ -40.358297868227581, -20.426215914305548, 0.0 ] } },
{ "type": "Feature", "properties": { "fid": 8265, "handle": 682175, "block": -1, "etype": 19, "space": 0, "layer": "N-QUADRAS", "olinetype": "byblock", "linetype": "", "color": "0,0,0,255", "ocolor": 256, "color24": -1, "transparency": 0, "lweight": -1, "linewidth": 0.0, "ltscale": 1.0, "visible": 1, "thickness": 0.0, "ext": "(3:0,0,1)", "height": 6.7876500276883824, "text": "86", "angle": -0.20855290235409457, "widthscale": 0.0, "oblique": 0.0, "style": "Legend", "textgen": 1, "alignh": 0, "alignv": 1, "interlin": 1.0 }, "geometry": { "type": "Point", "coordinates": [ -40.357102538347327, -20.425489397417408, 0.0 ] } },
{ "type": "Feature", "properties": { "fid": 8266, "handle": 682315, "block": -1, "etype": 19, "space": 0, "layer": "N-QUADRAS", "olinetype": "bylayer", "linetype": "", "color": "0,0,0,255", "ocolor": 256, "color24": -1, "transparency": 0, "lweight": -1, "linewidth": 0.0, "ltscale": 1.0, "visible": 1, "thickness": 0.0, "ext": "(3:0,0,1)", "height": 6.7876500276883824, "text": "31", "angle": -0.20855290235409457, "widthscale": 0.0, "oblique": 0.0, "style": "Legend", "textgen": 1, "alignh": 0, "alignv": 1, "interlin": 1.0 }, "geometry": { "type": "Point", "coordinates": [ -40.361113959898042, -20.427151489323155, 0.0 ] } },
{ "type": "Feature", "properties": { "fid": 8267, "handle": 682455, "block": -1, "etype": 19, "space": 0, "layer": "N-QUADRAS", "olinetype": "bylayer", "linetype": "", "color": "0,0,0,255", "ocolor": 256, "color24": -1, "transparency": 0, "lweight": -1, "linewidth": 0.0, "ltscale": 1.0, "visible": 1, "thickness": 0.0, "ext": "(3:0,0,1)", "height": 6.7876500276883824, "text": "51", "angle": -0.20855290235409457, "widthscale": 0.0, "oblique": 0.0, "style": "Legend", "textgen": 1, "alignh": 0, "alignv": 1, "interlin": 1.0 }, "geometry": { "type": "Point", "coordinates": [ -40.359908206929404, -20.426420836112083, 0.0 ] } },
{ "type": "Feature", "properties": { "fid": 8268, "handle": 682595, "block": -1, "etype": 19, "space": 0, "layer": "N-QUADRAS", "olinetype": "byblock", "linetype": "", "color": "0,0,0,255", "ocolor": 256, "color24": -1, "transparency": 0, "lweight": -1, "linewidth": 0.0, "ltscale": 1.0, "visible": 1, "thickness": 0.0, "ext": "(3:0,0,1)", "height": 6.7876500276883824, "text": "70", "angle": -0.20855290235409452, "widthscale": 0.0, "oblique": 0.0, "style": "Legend", "textgen": 1, "alignh": 0, "alignv": 1, "interlin": 1.0 }, "geometry": { "type": "Point", "coordinates": [ -40.358671657385223, -20.42567073908403, 0.0 ] } },
{ "type": "Feature", "properties": { "fid": 8269, "handle": 682735, "block": -1, "etype": 19, "space": 0, "layer": "N-QUADRAS", "olinetype": "byblock", "linetype": "", "color": "0,0,0,255", "ocolor": 256, "color24": -1, "transparency": 0, "lweight": -1, "linewidth": 0.0, "ltscale": 1.0, "visible": 1, "thickness": 0.0, "ext": "(3:0,0,1)", "height": 6.7876500276883824, "text": "87", "angle": -0.20855290235409457, "widthscale": 0.0, "oblique": 0.0, "style": "Legend", "textgen": 1, "alignh": 0, "alignv": 1, "interlin": 1.0 }, "geometry": { "type": "Point", "coordinates": [ -40.357477983924902, -20.424954206025639, 0.0 ] } },
{ "type": "Feature", "properties": { "fid": 8270, "handle": 682899, "block": -1, "etype": 19, "space": 0, "layer": "N-QUADRAS", "olinetype": "bylayer", "linetype": "", "color": "0,0,0,255", "ocolor": 256, "color24": -1, "transparency": 0, "lweight": -1, "linewidth": 0.0, "ltscale": 1.0, "visible": 1, "thickness": 0.0, "ext": "(3:0,0,1)", "height": 6.7876500276883824, "text": "32", "angle": -0.20855290235409457, "widthscale": 0.0, "oblique": 0.0, "style": "Legend", "textgen": 1, "alignh": 0, "alignv": 1, "interlin": 1.0 }, "geometry": { "type": "Point", "coordinates": [ -40.361495242565105, -20.426598965865566, 0.0 ] } },
{ "type": "Feature", "properties": { "fid": 8271, "handle": 683039, "block": -1, "etype": 19, "space": 0, "layer": "N-QUADRAS", "olinetype": "bylayer", "linetype": "", "color": "0,0,0,255", "ocolor": 256, "color24": -1, "transparency": 0, "lweight": -1, "linewidth": 0.0, "ltscale": 1.0, "visible": 1, "thickness": 0.0, "ext": "(3:0,0,1)", "height": 6.7876500276883824, "text": "52", "angle": -0.20855290235409457, "widthscale": 0.0, "oblique": 0.0, "style": "Legend", "textgen": 1, "alignh": 0, "alignv": 1, "interlin": 1.0 }, "geometry": { "type": "Point", "coordinates": [ -40.360282475985841, -20.425872478414124, 0.0 ] } },
{ "type": "Feature", "properties": { "fid": 8272, "handle": 683179, "block": -1, "etype": 19, "space": 0, "layer": "N-QUADRAS", "olinetype": "bylayer", "linetype": "", "color": "0,0,0,255", "ocolor": 256, "color24": -1, "transparency": 0, "lweight": -1, "linewidth": 0.0, "ltscale": 1.0, "visible": 1, "thickness": 0.0, "ext": "(3:0,0,1)", "height": 6.7876500276883824, "text": "71", "angle": -0.20855290235409452, "widthscale": 0.0, "oblique": 0.0, "style": "Legend", "textgen": 1, "alignh": 0, "alignv": 1, "interlin": 1.0 }, "geometry": { "type": "Point", "coordinates": [ -40.359044068592787, -20.425118023823725, 0.0 ] } },
{ "type": "Feature", "properties": { "fid": 8273, "handle": 683319, "block": -1, "etype": 19, "space": 0, "layer": "N-QUADRAS", "olinetype": "byblock", "linetype": "", "color": "0,0,0,255", "ocolor": 256, "color24": -1, "transparency": 0, "lweight": -1, "linewidth": 0.0, "ltscale": 1.0, "visible": 1, "thickness": 0.0, "ext": "(3:0,0,1)", "height": 6.7876500276883824, "text": "88", "angle": -0.20855290235409457, "widthscale": 0.0, "oblique": 0.0, "style": "Legend", "textgen": 1, "alignh": 0, "alignv": 1, "interlin": 1.0 }, "geometry": { "type": "Point", "coordinates": [ -40.357846895657801, -20.424399417367582, 0.0 ] } },
{ "type": "Feature", "properties": { "fid": 8274, "handle": 683459, "block": -1, "etype": 19, "space": 0, "layer": "N-QUADRAS", "olinetype": "bylayer", "linetype": "", "color": "0,0,0,255", "ocolor": 256, "color24": -1, "transparency": 0, "lweight": -1, "linewidth": 0.0, "ltscale": 1.0, "visible": 1, "thickness": 0.0, "ext": "(3:0,0,1)", "height": 6.7876500276883824, "text": "34", "angle": -0.20855290235409457, "widthscale": 0.0, "oblique": 0.0, "style": "Legend", "textgen": 1, "alignh": 0, "alignv": 1, "interlin": 1.0 }, "geometry": { "type": "Point", "coordinates": [ -40.36187460088437, -20.426036406937975, 0.0 ] } },
{ "type": "Feature", "properties": { "fid": 8275, "handle": 683599, "block": -1, "etype": 19, "space": 0, "layer": "N-QUADRAS", "olinetype": "bylayer", "linetype": "", "color": "0,0,0,255", "ocolor": 256, "color24": -1, "transparency": 0, "lweight": -1, "linewidth": 0.0, "ltscale": 1.0, "visible": 1, "thickness": 0.0, "ext": "(3:0,0,1)", "height": 6.7876500276883824, "text": "53", "angle": -0.20855290235409457, "widthscale": 0.0, "oblique": 0.0, "style": "Legend", "textgen": 1, "alignh": 0, "alignv": 1, "interlin": 1.0 }, "geometry": { "type": "Point", "coordinates": [ -40.36068111155042, -20.425302661481847, 0.0 ] } },
{ "type": "Feature", "properties": { "fid": 8276, "handle": 683736, "block": -1, "etype": 19, "space": 0, "layer": "N-QUADRAS", "olinetype": "bylayer", "linetype": "", "color": "0,0,0,255", "ocolor": 256, "color24": -1, "transparency": 0, "lweight": -1, "linewidth": 0.0, "ltscale": 1.0, "visible": 1, "thickness": 0.0, "ext": "(3:0,0,1)", "height": 6.7876500276883824, "text": "72", "angle": -0.20855290235409452, "widthscale": 0.0, "oblique": 0.0, "style": "Legend", "textgen": 1, "alignh": 0, "alignv": 1, "interlin": 1.0 }, "geometry": { "type": "Point", "coordinates": [ -40.359428717858428, -20.424561586230826, 0.0 ] } },
{ "type": "Feature", "properties": { "fid": 8277, "handle": 683875, "block": -1, "etype": 19, "space": 0, "layer": "N-QUADRAS", "olinetype": "byblock", "linetype": "", "color": "0,0,0,255", "ocolor": 256, "color24": -1, "transparency": 0, "lweight": -1, "linewidth": 0.0, "ltscale": 1.0, "visible": 1, "thickness": 0.0, "ext": "(3:0,0,1)", "height": 6.7876500276883824, "text": "89", "angle": -0.20855290235409457, "widthscale": 0.0, "oblique": 0.0, "style": "Legend", "textgen": 1, "alignh": 0, "alignv": 1, "interlin": 1.0 }, "geometry": { "type": "Point", "coordinates": [ -40.358228730151545, -20.423836610892753, 0.0 ] } },
{ "type": "Feature", "properties": { "fid": 8278, "handle": 684039, "block": -1, "etype": 19, "space": 0, "layer": "N-QUADRAS", "olinetype": "bylayer", "linetype": "", "color": "0,0,0,255", "ocolor": 256, "color24": -1, "transparency": 0, "lweight": -1, "linewidth": 0.0, "ltscale": 1.0, "visible": 1, "thickness": 0.0, "ext": "(3:0,0,1)", "height": 6.7876500276883824, "text": "35", "angle": -0.20855290235409457, "widthscale": 0.0, "oblique": 0.0, "style": "Legend", "textgen": 1, "alignh": 0, "alignv": 1, "interlin": 1.0 }, "geometry": { "type": "Point", "coordinates": [ -40.362239508400535, -20.425487273863819, 0.0 ] } },
{ "type": "Feature", "properties": { "fid": 8279, "handle": 684179, "block": -1, "etype": 19, "space": 0, "layer": "N-QUADRAS", "olinetype": "bylayer", "linetype": "", "color": "0,0,0,255", "ocolor": 256, "color24": -1, "transparency": 0, "lweight": -1, "linewidth": 0.0, "ltscale": 1.0, "visible": 1, "thickness": 0.0, "ext": "(3:0,0,1)", "height": 6.7876500276883824, "text": "54", "angle": -0.20855290235409457, "widthscale": 0.0, "oblique": 0.0, "style": "Legend", "textgen": 1, "alignh": 0, "alignv": 1, "interlin": 1.0 }, "geometry": { "type": "Point", "coordinates": [ -40.361040850299673, -20.424763880814719, 0.0 ] } },
{ "type": "Feature", "properties": { "fid": 8280, "handle": 684307, "block": -1, "etype": 19, "space": 0, "layer": "N-QUADRAS", "olinetype": "byblock", "linetype": "", "color": "0,0,0,255", "ocolor": 256, "color24": -1, "transparency": 0, "lweight": -1, "linewidth": 0.0, "ltscale": 1.0, "visible": 1, "thickness": 0.0, "ext": "(3:0,0,1)", "height": 6.7876500276883824, "text": "73", "angle": -0.20855290235409452, "widthscale": 0.0, "oblique": 0.0, "style": "Legend", "textgen": 1, "alignh": 0, "alignv": 1, "interlin": 1.0 }, "geometry": { "type": "Point", "coordinates": [ -40.35980055347455, -20.424007572265481, 0.0 ] } },
{ "type": "Feature", "properties": { "fid": 8281, "handle": 684413, "block": -1, "etype": 19, "space": 0, "layer": "N-QUADRAS", "olinetype": "byblock", "linetype": "", "color": "0,0,0,255", "ocolor": 256, "color24": -1, "transparency": 0, "lweight": -1, "linewidth": 0.0, "ltscale": 1.0, "visible": 1, "thickness": 0.0, "ext": "(3:0,0,1)", "height": 6.7876500276883824, "text": "90", "angle": -0.20855290235409457, "widthscale": 0.0, "oblique": 0.0, "style": "Legend", "textgen": 1, "alignh": 0, "alignv": 1, "interlin": 1.0 }, "geometry": { "type": "Point", "coordinates": [ -40.358611908363891, -20.423280873180385, 0.0 ] } },
{ "type": "Feature", "properties": { "fid": 8282, "handle": 684547, "block": -1, "etype": 19, "space": 0, "layer": "N-QUADRAS", "olinetype": "bylayer", "linetype": "", "color": "0,0,0,255", "ocolor": 256, "color24": -1, "transparency": 0, "lweight": -1, "linewidth": 0.0, "ltscale": 1.0, "visible": 1, "thickness": 0.0, "ext": "(3:0,0,1)", "height": 6.7876500276883824, "text": "36", "angle": -0.20855290235409457, "widthscale": 0.0, "oblique": 0.0, "style": "Legend", "textgen": 1, "alignh": 0, "alignv": 1, "interlin": 1.0 }, "geometry": { "type": "Point", "coordinates": [ -40.362616127581532, -20.424943379451836, 0.0 ] } },
{ "type": "Feature", "properties": { "fid": 8283, "handle": 684682, "block": -1, "etype": 19, "space": 0, "layer": "N-QUADRAS", "olinetype": "bylayer", "linetype": "", "color": "0,0,0,255", "ocolor": 256, "color24": -1, "transparency": 0, "lweight": -1, "linewidth": 0.0, "ltscale": 1.0, "visible": 1, "thickness": 0.0, "ext": "(3:0,0,1)", "height": 6.7876500276883824, "text": "55", "angle": -0.20855290235409457, "widthscale": 0.0, "oblique": 0.0, "style": "Legend", "textgen": 1, "alignh": 0, "alignv": 1, "interlin": 1.0 }, "geometry": { "type": "Point", "coordinates": [ -40.361412848597354, -20.424218654383218, 0.0 ] } },
{ "type": "Feature", "properties": { "fid": 8284, "handle": 684817, "block": -1, "etype": 19, "space": 0, "layer": "N-QUADRAS", "olinetype": "byblock", "linetype": "", "color": "0,0,0,255", "ocolor": 256, "color24": -1, "transparency": 0, "lweight": -1, "linewidth": 0.0, "ltscale": 1.0, "visible": 1, "thickness": 0.0, "ext": "(3:0,0,1)", "height": 6.7876500276883824, "text": "74", "angle": -0.20855290235409457, "widthscale": 0.0, "oblique": 0.0, "style": "Legend", "textgen": 1, "alignh": 0, "alignv": 1, "interlin": 1.0 }, "geometry": { "type": "Point", "coordinates": [ -40.360179253297737, -20.423467726514737, 0.0 ] } },
{ "type": "Feature", "properties": { "fid": 8285, "handle": 684957, "block": -1, "etype": 19, "space": 0, "layer": "N-QUADRAS", "olinetype": "byblock", "linetype": "", "color": "0,0,0,255", "ocolor": 256, "color24": -1, "transparency": 0, "lweight": -1, "linewidth": 0.0, "ltscale": 1.0, "visible": 1, "thickness": 0.0, "ext": "(3:0,0,1)", "height": 6.7876500276883824, "text": "91", "angle": -0.20855290235409457, "widthscale": 0.0, "oblique": 0.0, "style": "Legend", "textgen": 1, "alignh": 0, "alignv": 1, "interlin": 1.0 }, "geometry": { "type": "Point", "coordinates": [ -40.358978883216459, -20.422745754395212, 0.0 ] } },
{ "type": "Feature", "properties": { "fid": 8286, "handle": 685122, "block": -1, "etype": 19, "space": 0, "layer": "N-QUADRAS", "olinetype": "bylayer", "linetype": "", "color": "0,0,0,255", "ocolor": 256, "color24": -1, "transparency": 0, "lweight": -1, "linewidth": 0.0, "ltscale": 1.0, "visible": 1, "thickness": 0.0, "ext": "(3:0,0,1)", "height": 6.7876500276883824, "text": "37", "angle": -0.20855290235409457, "widthscale": 0.0, "oblique": 0.0, "style": "Legend", "textgen": 1, "alignh": 0, "alignv": 1, "interlin": 1.0 }, "geometry": { "type": "Point", "coordinates": [ -40.363001539818221, -20.424385812651209, 0.0 ] } },
{ "type": "Feature", "properties": { "fid": 8287, "handle": 685262, "block": -1, "etype": 19, "space": 0, "layer": "N-QUADRAS", "olinetype": "byblock", "linetype": "", "color": "0,0,0,255", "ocolor": 256, "color24": -1, "transparency": 0, "lweight": -1, "linewidth": 0.0, "ltscale": 1.0, "visible": 1, "thickness": 0.0, "ext": "(3:0,0,1)", "height": 6.7876500276883824, "text": "56", "angle": -0.20855290235409457, "widthscale": 0.0, "oblique": 0.0, "style": "Legend", "textgen": 1, "alignh": 0, "alignv": 1, "interlin": 1.0 }, "geometry": { "type": "Point", "coordinates": [ -40.361792848517709, -20.423657931831794, 0.0 ] } },
{ "type": "Feature", "properties": { "fid": 8288, "handle": 685402, "block": -1, "etype": 19, "space": 0, "layer": "N-QUADRAS", "olinetype": "byblock", "linetype": "", "color": "0,0,0,255", "ocolor": 256, "color24": -1, "transparency": 0, "lweight": -1, "linewidth": 0.0, "ltscale": 1.0, "visible": 1, "thickness": 0.0, "ext": "(3:0,0,1)", "height": 6.7876500276883824, "text": "75", "angle": -0.20855290235409452, "widthscale": 0.0, "oblique": 0.0, "style": "Legend", "textgen": 1, "alignh": 0, "alignv": 1, "interlin": 1.0 }, "geometry": { "type": "Point", "coordinates": [ -40.36055730093684, -20.422903179384779, 0.0 ] } },
{ "type": "Feature", "properties": { "fid": 8289, "handle": 685535, "block": -1, "etype": 19, "space": 0, "layer": "N-QUADRAS", "olinetype": "byblock", "linetype": "", "color": "0,0,0,255", "ocolor": 256, "color24": -1, "transparency": 0, "lweight": -1, "linewidth": 0.0, "ltscale": 1.0, "visible": 1, "thickness": 0.0, "ext": "(3:0,0,1)", "height": 6.7876500276883824, "text": "92", "angle": -0.20855290235409457, "widthscale": 0.0, "oblique": 0.0, "style": "Legend", "textgen": 1, "alignh": 0, "alignv": 1, "interlin": 1.0 }, "geometry": { "type": "Point", "coordinates": [ -40.359366219928624, -20.422174850744284, 0.0 ] } },
{ "type": "Feature", "properties": { "fid": 8290, "handle": 685675, "block": -1, "etype": 19, "space": 0, "layer": "N-QUADRAS", "olinetype": "bylayer", "linetype": "", "color": "0,0,0,255", "ocolor": 256, "color24": -1, "transparency": 0, "lweight": -1, "linewidth": 0.0, "ltscale": 1.0, "visible": 1, "thickness": 0.0, "ext": "(3:0,0,1)", "height": 6.7876500276883824, "text": "38", "angle": -0.20855290235409457, "widthscale": 0.0, "oblique": 0.0, "style": "Legend", "textgen": 1, "alignh": 0, "alignv": 1, "interlin": 1.0 }, "geometry": { "type": "Point", "coordinates": [ -40.363381774499445, -20.423776968529268, 0.0 ] } },
{ "type": "Feature", "properties": { "fid": 8291, "handle": 685815, "block": -1, "etype": 19, "space": 0, "layer": "N-QUADRAS", "olinetype": "bylayer", "linetype": "", "color": "0,0,0,255", "ocolor": 256, "color24": -1, "transparency": 0, "lweight": -1, "linewidth": 0.0, "ltscale": 1.0, "visible": 1, "thickness": 0.0, "ext": "(3:0,0,1)", "height": 6.7876500276883824, "text": "57", "angle": -0.20855290235409457, "widthscale": 0.0, "oblique": 0.0, "style": "Legend", "textgen": 1, "alignh": 0, "alignv": 1, "interlin": 1.0 }, "geometry": { "type": "Point", "coordinates": [ -40.362193974938435, -20.42304953231088, 0.0 ] } },
{ "type": "Feature", "properties": { "fid": 8292, "handle": 685956, "block": -1, "etype": 19, "space": 0, "layer": "N-QUADRAS", "olinetype": "byblock", "linetype": "", "color": "0,0,0,255", "ocolor": 256, "color24": -1, "transparency": 0, "lweight": -1, "linewidth": 0.0, "ltscale": 1.0, "visible": 1, "thickness": 0.0, "ext": "(3:0,0,1)", "height": 6.7876500276883824, "text": "76", "angle": -0.20855290235409452, "widthscale": 0.0, "oblique": 0.0, "style": "Legend", "textgen": 1, "alignh": 0, "alignv": 1, "interlin": 1.0 }, "geometry": { "type": "Point", "coordinates": [ -40.360951831740849, -20.422308155595292, 0.0 ] } },
{ "type": "Feature", "properties": { "fid": 8293, "handle": 686096, "block": -1, "etype": 19, "space": 0, "layer": "N-QUADRAS", "olinetype": "byblock", "linetype": "", "color": "0,0,0,255", "ocolor": 256, "color24": -1, "transparency": 0, "lweight": -1, "linewidth": 0.0, "ltscale": 1.0, "visible": 1, "thickness": 0.0, "ext": "(3:0,0,1)", "height": 6.7876500276883824, "text": "93", "angle": -0.20855290235409457, "widthscale": 0.0, "oblique": 0.0, "style": "Legend", "textgen": 1, "alignh": 0, "alignv": 1, "interlin": 1.0 }, "geometry": { "type": "Point", "coordinates": [ -40.359761782828841, -20.421589098737524, 0.0 ] } },
{ "type": "Feature", "properties": { "fid": 8294, "handle": 686145, "block": -1, "etype": 19, "space": 0, "layer": "N-QUADRAS", "olinetype": "bylayer", "linetype": "", "color": "0,0,0,255", "ocolor": 256, "color24": -1, "transparency": 0, "lweight": -1, "linewidth": 0.0, "ltscale": 1.0, "visible": 1, "thickness": 0.0, "ext": "(3:0,0,1)", "height": 6.7876500276883824, "text": "18", "angle": -0.20855290235409457, "widthscale": 0.0, "oblique": 0.0, "style": "Legend", "textgen": 1, "alignh": 0, "alignv": 1, "interlin": 1.0 }, "geometry": { "type": "Point", "coordinates": [ -40.364195725556399, -20.424325212352983, 0.0 ] } },
{ "type": "Feature", "properties": { "fid": 8295, "handle": 686147, "block": -1, "etype": 19, "space": 0, "layer": "N-QUADRAS", "olinetype": "bylayer", "linetype": "", "color": "0,0,0,255", "ocolor": 256, "color24": -1, "transparency": 0, "lweight": -1, "linewidth": 0.0, "ltscale": 1.0, "visible": 1, "thickness": 0.0, "ext": "(3:0,0,1)", "height": 6.7876500276883824, "text": "17", "angle": -0.20855290235409457, "widthscale": 0.0, "oblique": 0.0, "style": "Legend", "textgen": 1, "alignh": 0, "alignv": 1, "interlin": 1.0 }, "geometry": { "type": "Point", "coordinates": [ -40.363804844482708, -20.424877706893898, 0.0 ] } },
{ "type": "Feature", "properties": { "fid": 8296, "handle": 686149, "block": -1, "etype": 19, "space": 0, "layer": "N-QUADRAS", "olinetype": "bylayer", "linetype": "", "color": "0,0,0,255", "ocolor": 256, "color24": -1, "transparency": 0, "lweight": -1, "linewidth": 0.0, "ltscale": 1.0, "visible": 1, "thickness": 0.0, "ext": "(3:0,0,1)", "height": 6.7876500276883824, "text": "16", "angle": -0.20855290235409457, "widthscale": 0.0, "oblique": 0.0, "style": "Legend", "textgen": 1, "alignh": 0, "alignv": 1, "interlin": 1.0 }, "geometry": { "type": "Point", "coordinates": [ -40.363429260665974, -20.425431540492163, 0.0 ] } },
{ "type": "Feature", "properties": { "fid": 8297, "handle": 686151, "block": -1, "etype": 19, "space": 0, "layer": "N-QUADRAS", "olinetype": "bylayer", "linetype": "", "color": "0,0,0,255", "ocolor": 256, "color24": -1, "transparency": 0, "lweight": -1, "linewidth": 0.0, "ltscale": 1.0, "visible": 1, "thickness": 0.0, "ext": "(3:0,0,1)", "height": 6.7876500276883824, "text": "15", "angle": -0.20855290235409457, "widthscale": 0.0, "oblique": 0.0, "style": "Legend", "textgen": 1, "alignh": 0, "alignv": 1, "interlin": 1.0 }, "geometry": { "type": "Point", "coordinates": [ -40.363050416741245, -20.425984137510806, 0.0 ] } },
{ "type": "Feature", "properties": { "fid": 8298, "handle": 686153, "block": -1, "etype": 19, "space": 0, "layer": "N-QUADRAS", "olinetype": "bylayer", "linetype": "", "color": "0,0,0,255", "ocolor": 256, "color24": -1, "transparency": 0, "lweight": -1, "linewidth": 0.0, "ltscale": 1.0, "visible": 1, "thickness": 0.0, "ext": "(3:0,0,1)", "height": 6.7876500276883824, "text": "14", "angle": -0.20855290235409457, "widthscale": 0.0, "oblique": 0.0, "style": "Legend", "textgen": 1, "alignh": 0, "alignv": 1, "interlin": 1.0 }, "geometry": { "type": "Point", "coordinates": [ -40.362669804109117, -20.426530349331919, 0.0 ] } },
{ "type": "Feature", "properties": { "fid": 8299, "handle": 686155, "block": -1, "etype": 19, "space": 0, "layer": "N-QUADRAS", "olinetype": "bylayer", "linetype": "", "color": "0,0,0,255", "ocolor": 256, "color24": -1, "transparency": 0, "lweight": -1, "linewidth": 0.0, "ltscale": 1.0, "visible": 1, "thickness": 0.0, "ext": "(3:0,0,1)", "height": 6.7876500276883824, "text": "13", "angle": -0.20855290235409457, "widthscale": 0.0, "oblique": 0.0, "style": "Legend", "textgen": 1, "alignh": 0, "alignv": 1, "interlin": 1.0 }, "geometry": { "type": "Point", "coordinates": [ -40.362291349400259, -20.427092513345784, 0.0 ] } },
{ "type": "Feature", "properties": { "fid": 8300, "handle": 686157, "block": -1, "etype": 19, "space": 0, "layer": "N-QUADRAS", "olinetype": "bylayer", "linetype": "", "color": "0,0,0,255", "ocolor": 256, "color24": -1, "transparency": 0, "lweight": -1, "linewidth": 0.0, "ltscale": 1.0, "visible": 1, "thickness": 0.0, "ext": "(3:0,0,1)", "height": 6.7876500276883824, "text": "12", "angle": -0.20855290235409457, "widthscale": 0.0, "oblique": 0.0, "style": "Legend", "textgen": 1, "alignh": 0, "alignv": 1, "interlin": 1.0 }, "geometry": { "type": "Point", "coordinates": [ -40.361908654476878, -20.427633966245814, 0.0 ] } },
{ "type": "Feature", "properties": { "fid": 8301, "handle": 686159, "block": -1, "etype": 19, "space": 0, "layer": "N-QUADRAS", "olinetype": "bylayer", "linetype": "", "color": "0,0,0,255", "ocolor": 256, "color24": -1, "transparency": 0, "lweight": -1, "linewidth": 0.0, "ltscale": 1.0, "visible": 1, "thickness": 0.0, "ext": "(3:0,0,1)", "height": 6.7876500276883824, "text": "11", "angle": -0.20855290235409457, "widthscale": 0.0, "oblique": 0.0, "style": "Legend", "textgen": 1, "alignh": 0, "alignv": 1, "interlin": 1.0 }, "geometry": { "type": "Point", "coordinates": [ -40.361545212538232, -20.428181833767976, 0.0 ] } },
{ "type": "Feature", "properties": { "fid": 8302, "handle": 686161, "block": -1, "etype": 19, "space": 0, "layer": "N-QUADRAS", "olinetype": "bylayer", "linetype": "", "color": "0,0,0,255", "ocolor": 256, "color24": -1, "transparency": 0, "lweight": -1, "linewidth": 0.0, "ltscale": 1.0, "visible": 1, "thickness": 0.0, "ext": "(3:0,0,1)", "height": 6.7876500276883824, "text": "10", "angle": -0.20855290235409457, "widthscale": 0.0, "oblique": 0.0, "style": "Legend", "textgen": 1, "alignh": 0, "alignv": 1, "interlin": 1.0 }, "geometry": { "type": "Point", "coordinates": [ -40.361110337256036, -20.428745134891724, 0.0 ] } },
{ "type": "Feature", "properties": { "fid": 8303, "handle": 686163, "block": -1, "etype": 19, "space": 0, "layer": "N-QUADRAS", "olinetype": "bylayer", "linetype": "", "color": "0,0,0,255", "ocolor": 256, "color24": -1, "transparency": 0, "lweight": -1, "linewidth": 0.0, "ltscale": 1.0, "visible": 1, "thickness": 0.0, "ext": "(3:0,0,1)", "height": 6.7876500276883824, "text": "9", "angle": -0.20855290235409457, "widthscale": 0.0, "oblique": 0.0, "style": "Legend", "textgen": 1, "alignh": 0, "alignv": 1, "interlin": 1.0 }, "geometry": { "type": "Point", "coordinates": [ -40.36076656231981, -20.429311015628045, 0.0 ] } },
{ "type": "Feature", "properties": { "fid": 8304, "handle": 686165, "block": -1, "etype": 19, "space": 0, "layer": "N-QUADRAS", "olinetype": "bylayer", "linetype": "", "color": "0,0,0,255", "ocolor": 256, "color24": -1, "transparency": 0, "lweight": -1, "linewidth": 0.0, "ltscale": 1.0, "visible": 1, "thickness": 0.0, "ext": "(3:0,0,1)", "height": 6.7876500276883824, "text": "8", "angle": -0.20855290235409457, "widthscale": 0.0, "oblique": 0.0, "style": "Legend", "textgen": 1, "alignh": 0, "alignv": 1, "interlin": 1.0 }, "geometry": { "type": "Point", "coordinates": [ -40.360380053310998, -20.429860693990868, 0.0 ] } },
{ "type": "Feature", "properties": { "fid": 8305, "handle": 686167, "block": -1, "etype": 19, "space": 0, "layer": "N-QUADRAS", "olinetype": "bylayer", "linetype": "", "color": "0,0,0,255", "ocolor": 256, "color24": -1, "transparency": 0, "lweight": -1, "linewidth": 0.0, "ltscale": 1.0, "visible": 1, "thickness": 0.0, "ext": "(3:0,0,1)", "height": 6.7876500276883824, "text": "7", "angle": -0.20855290235409457, "widthscale": 0.0, "oblique": 0.0, "style": "Legend", "textgen": 1, "alignh": 0, "alignv": 1, "interlin": 1.0 }, "geometry": { "type": "Point", "coordinates": [ -40.359959201556471, -20.430449058232735, 0.0 ] } },
{ "type": "Feature", "properties": { "fid": 8306, "handle": 686169, "block": -1, "etype": 19, "space": 0, "layer": "N-QUADRAS", "olinetype": "byblock", "linetype": "", "color": "0,0,0,255", "ocolor": 256, "color24": -1, "transparency": 0, "lweight": -1, "linewidth": 0.0, "ltscale": 1.0, "visible": 1, "thickness": 0.0, "ext": "(3:0,0,1)", "height": 6.7876500276883824, "text": "101A", "angle": -0.20855290235409457, "widthscale": 0.0, "oblique": 0.0, "style": "Legend", "textgen": 1, "alignh": 0, "alignv": 1, "interlin": 1.0 }, "geometry": { "type": "Point", "coordinates": [ -40.355097650620081, -20.426952558037573, 0.0 ] } },
{ "type": "Feature", "properties": { "fid": 8307, "handle": 686171, "block": -1, "etype": 19, "space": 0, "layer": "N-QUADRAS", "olinetype": "byblock", "linetype": "", "color": "0,0,0,255", "ocolor": 256, "color24": -1, "transparency": 0, "lweight": -1, "linewidth": 0.0, "ltscale": 1.0, "visible": 1, "thickness": 0.0, "ext": "(3:0,0,1)", "height": 6.7876500276883824, "text": "102", "angle": -0.20855290235409452, "widthscale": 0.0, "oblique": 0.0, "style": "Legend", "textgen": 1, "alignh": 0, "alignv": 1, "interlin": 1.0 }, "geometry": { "type": "Point", "coordinates": [ -40.355590534988536, -20.426133743014177, 0.0 ] } },
{ "type": "Feature", "properties": { "fid": 8308, "handle": 686173, "block": -1, "etype": 19, "space": 0, "layer": "N-QUADRAS", "olinetype": "byblock", "linetype": "", "color": "0,0,0,255", "ocolor": 256, "color24": -1, "transparency": 0, "lweight": -1, "linewidth": 0.0, "ltscale": 1.0, "visible": 1, "thickness": 0.0, "ext": "(3:0,0,1)", "height": 6.7876500276883824, "text": "103", "angle": -0.20855290235409452, "widthscale": 0.0, "oblique": 0.0, "style": "Legend", "textgen": 1, "alignh": 0, "alignv": 1, "interlin": 1.0 }, "geometry": { "type": "Point", "coordinates": [ -40.355965667621682, -20.425582050444852, 0.0 ] } },
{ "type": "Feature", "properties": { "fid": 8309, "handle": 686175, "block": -1, "etype": 19, "space": 0, "layer": "N-QUADRAS", "olinetype": "byblock", "linetype": "", "color": "0,0,0,255", "ocolor": 256, "color24": -1, "transparency": 0, "lweight": -1, "linewidth": 0.0, "ltscale": 1.0, "visible": 1, "thickness": 0.0, "ext": "(3:0,0,1)", "height": 6.7876500276883824, "text": "104", "angle": -0.20855290235409457, "widthscale": 0.0, "oblique": 0.0, "style": "Legend", "textgen": 1, "alignh": 0, "alignv": 1, "interlin": 1.0 }, "geometry": { "type": "Point", "coordinates": [ -40.356373219428548, -20.425010453755053, 0.0 ] } },
{ "type": "Feature", "properties": { "fid": 8310, "handle": 686177, "block": -1, "etype": 19, "space": 0, "layer": "N-QUADRAS", "olinetype": "byblock", "linetype": "", "color": "0,0,0,255", "ocolor": 256, "color24": -1, "transparency": 0, "lweight": -1, "linewidth": 0.0, "ltscale": 1.0, "visible": 1, "thickness": 0.0, "ext": "(3:0,0,1)", "height": 6.7876500276883824, "text": "105", "angle": -0.20855290235409457, "widthscale": 0.0, "oblique": 0.0, "style": "Legend", "textgen": 1, "alignh": 0, "alignv": 1, "interlin": 1.0 }, "geometry": { "type": "Point", "coordinates": [ -40.356742679620083, -20.424470531332812, 0.0 ] } },
{ "type": "Feature", "properties": { "fid": 8311, "handle": 686179, "block": -1, "etype": 19, "space": 0, "layer": "N-QUADRAS", "olinetype": "byblock", "linetype": "", "color": "0,0,0,255", "ocolor": 256, "color24": -1, "transparency": 0, "lweight": -1, "linewidth": 0.0, "ltscale": 1.0, "visible": 1, "thickness": 0.0, "ext": "(3:0,0,1)", "height": 6.7876500276883824, "text": "106", "angle": -0.20855290235409457, "widthscale": 0.0, "oblique": 0.0, "style": "Legend", "textgen": 1, "alignh": 0, "alignv": 1, "interlin": 1.0 }, "geometry": { "type": "Point", "coordinates": [ -40.357118047604878, -20.423925258101811, 0.0 ] } },
{ "type": "Feature", "properties": { "fid": 8312, "handle": 686181, "block": -1, "etype": 19, "space": 0, "layer": "N-QUADRAS", "olinetype": "bylayer", "linetype": "", "color": "0,0,0,255", "ocolor": 256, "color24": -1, "transparency": 0, "lweight": -1, "linewidth": 0.0, "ltscale": 1.0, "visible": 1, "thickness": 0.0, "ext": "(3:0,0,1)", "height": 6.7876500276883824, "text": "107", "angle": -0.20855290235409457, "widthscale": 0.0, "oblique": 0.0, "style": "Legend", "textgen": 1, "alignh": 0, "alignv": 1, "interlin": 1.0 }, "geometry": { "type": "Point", "coordinates": [ -40.357504950507192, -20.423371591037075, 0.0 ] } },
{ "type": "Feature", "properties": { "fid": 8313, "handle": 686183, "block": -1, "etype": 19, "space": 0, "layer": "N-QUADRAS", "olinetype": "byblock", "linetype": "", "color": "0,0,0,255", "ocolor": 256, "color24": -1, "transparency": 0, "lweight": -1, "linewidth": 0.0, "ltscale": 1.0, "visible": 1, "thickness": 0.0, "ext": "(3:0,0,1)", "height": 6.7876500276883824, "text": "108", "angle": -0.20855290235409457, "widthscale": 0.0, "oblique": 0.0, "style": "Legend", "textgen": 1, "alignh": 0, "alignv": 1, "interlin": 1.0 }, "geometry": { "type": "Point", "coordinates": [ -40.3578705625225, -20.422826588620655, 0.0 ] } },
{ "type": "Feature", "properties": { "fid": 8314, "handle": 686185, "block": -1, "etype": 19, "space": 0, "layer": "N-QUADRAS", "olinetype": "byblock", "linetype": "", "color": "0,0,0,255", "ocolor": 256, "color24": -1, "transparency": 0, "lweight": -1, "linewidth": 0.0, "ltscale": 1.0, "visible": 1, "thickness": 0.0, "ext": "(3:0,0,1)", "height": 6.7876500276883824, "text": "109", "angle": -0.20855290235409457, "widthscale": 0.0, "oblique": 0.0, "style": "Legend", "textgen": 1, "alignh": 0, "alignv": 1, "interlin": 1.0 }, "geometry": { "type": "Point", "coordinates": [ -40.358245513682633, -20.422278065424635, 0.0 ] } },
{ "type": "Feature", "properties": { "fid": 8315, "handle": 686187, "block": -1, "etype": 19, "space": 0, "layer": "N-QUADRAS", "olinetype": "byblock", "linetype": "", "color": "0,0,0,255", "ocolor": 256, "color24": -1, "transparency": 0, "lweight": -1, "linewidth": 0.0, "ltscale": 1.0, "visible": 1, "thickness": 0.0, "ext": "(3:0,0,1)", "height": 6.7876500276883824, "text": "110", "angle": -0.20855290235409457, "widthscale": 0.0, "oblique": 0.0, "style": "Legend", "textgen": 1, "alignh": 0, "alignv": 1, "interlin": 1.0 }, "geometry": { "type": "Point", "coordinates": [ -40.358640135723562, -20.421727635630525, 0.0 ] } },
{ "type": "Feature", "properties": { "fid": 8316, "handle": 686189, "block": -1, "etype": 19, "space": 0, "layer": "N-QUADRAS", "olinetype": "byblock", "linetype": "", "color": "0,0,0,255", "ocolor": 256, "color24": -1, "transparency": 0, "lweight": -1, "linewidth": 0.0, "ltscale": 1.0, "visible": 1, "thickness": 0.0, "ext": "(3:0,0,1)", "height": 6.7876500276883824, "text": "111", "angle": -0.20855290235409457, "widthscale": 0.0, "oblique": 0.0, "style": "Legend", "textgen": 1, "alignh": 0, "alignv": 1, "interlin": 1.0 }, "geometry": { "type": "Point", "coordinates": [ -40.358998159575528, -20.421170124769951, 0.0 ] } },
{ "type": "Feature", "properties": { "fid": 8317, "handle": 686191, "block": -1, "etype": 19, "space": 0, "layer": "N-QUADRAS", "olinetype": "bylayer", "linetype": "", "color": "0,0,0,255", "ocolor": 256, "color24": -1, "transparency": 0, "lweight": -1, "linewidth": 0.0, "ltscale": 1.0, "visible": 1, "thickness": 0.0, "ext": "(3:0,0,1)", "height": 6.7876500276883824, "text": "26", "angle": -0.20855290235409457, "widthscale": 0.0, "oblique": 0.0, "style": "Legend", "textgen": 1, "alignh": 0, "alignv": 1, "interlin": 1.0 }, "geometry": { "type": "Point", "coordinates": [ -40.359197218421194, -20.429951933805743, 0.0 ] } },
{ "type": "Feature", "properties": { "fid": 8318, "handle": 686193, "block": -1, "etype": 19, "space": 0, "layer": "N-QUADRAS", "olinetype": "bylayer", "linetype": "", "color": "0,0,0,255", "ocolor": 256, "color24": -1, "transparency": 0, "lweight": -1, "linewidth": 0.0, "ltscale": 1.0, "visible": 1, "thickness": 0.0, "ext": "(3:0,0,1)", "height": 6.7876500276883824, "text": "27", "angle": -0.20855290235409457, "widthscale": 0.0, "oblique": 0.0, "style": "Legend", "textgen": 1, "alignh": 0, "alignv": 1, "interlin": 1.0 }, "geometry": { "type": "Point", "coordinates": [ -40.359599988165471, -20.429366148989253, 0.0 ] } },
{ "type": "Feature", "properties": { "fid": 8321, "handle": 687572, "block": -1, "etype": 19, "space": 0, "layer": "N-QUADRAS", "olinetype": "bylayer", "linetype": "", "color": "0,0,0,255", "ocolor": 256, "color24": -1, "transparency": 0, "lweight": -1, "linewidth": 0.0, "ltscale": 1.0, "visible": 1, "thickness": 0.0, "ext": "(3:0,0,1)", "height": 6.7876500276883824, "text": "65", "angle": -0.20855290235409457, "widthscale": 0.0, "oblique": 0.0, "style": "Legend", "textgen": 1, "alignh": 0, "alignv": 1, "interlin": 1.0 }, "geometry": { "type": "Point", "coordinates": [ -40.35677865379342, -20.428507634123328, 0.0 ] } },
{ "type": "Feature", "properties": { "fid": 8335, "handle": 687666, "block": -1, "etype": 25, "space": 0, "layer": "N-QUADRAS", "olinetype": "bylayer", "linetype": "", "color": "0,0,0,255", "ocolor": 256, "color24": -1, "transparency": 0, "lweight": -1, "linewidth": 0.0, "ltscale": 1.0, "visible": 1, "thickness": 0.0, "ext": "(3:0,0,1)", "height": 6.7876500276883824, "text": "PRAÇA", "angle": 359.79144708792387, "widthscale": 1.0, "oblique": 0.0, "style": "Legend", "textgen": 0, "alignh": 0, "alignv": 0, "interlin": -1.0 }, "geometry": { "type": "Point", "coordinates": [ -40.355921568790848, -20.427445489123965, 0.0 ] } },
{ "type": "Feature", "properties": { "fid": 8431, "handle": 689650, "block": -1, "etype": 19, "space": 0, "layer": "N-QUADRAS", "olinetype": "bylayer", "linetype": "", "color": "0,0,0,255", "ocolor": 256, "color24": -1, "transparency": 0, "lweight": -1, "linewidth": 0.0, "ltscale": 1.0, "visible": 1, "thickness": 0.0, "ext": "(3:0,0,1)", "height": 6.7876500276883824, "text": "64", "angle": -0.20855290235409457, "widthscale": 0.0, "oblique": 0.0, "style": "Legend", "textgen": 1, "alignh": 0, "alignv": 1, "interlin": 1.0 }, "geometry": { "type": "Point", "coordinates": [ -40.356391164463851, -20.429028375834474, 0.0 ] } },
{ "type": "Feature", "properties": { "fid": 8432, "handle": 689750, "block": -1, "etype": 19, "space": 0, "layer": "N-QUADRAS", "olinetype": "bylayer", "linetype": "", "color": "0,0,0,255", "ocolor": 256, "color24": -1, "transparency": 0, "lweight": -1, "linewidth": 0.0, "ltscale": 1.0, "visible": 1, "thickness": 0.0, "ext": "(3:0,0,1)", "height": 6.7876500276883824, "text": "83", "angle": -0.20855290235409457, "widthscale": 0.0, "oblique": 0.0, "style": "Legend", "textgen": 1, "alignh": 0, "alignv": 1, "interlin": 1.0 }, "geometry": { "type": "Point", "coordinates": [ -40.35518085324955, -20.428311798273722, 0.0 ] } },
{ "type": "Feature", "properties": { "fid": 8433, "handle": 689788, "block": -1, "etype": 19, "space": 0, "layer": "N-QUADRAS", "olinetype": "bylayer", "linetype": "", "color": "0,0,0,255", "ocolor": 256, "color24": -1, "transparency": 0, "lweight": -1, "linewidth": 0.0, "ltscale": 1.0, "visible": 1, "thickness": 0.0, "ext": "(3:0,0,1)", "height": 6.7876500276883824, "text": "101", "angle": -0.20855290235409457, "widthscale": 0.0, "oblique": 0.0, "style": "Legend", "textgen": 1, "alignh": 0, "alignv": 1, "interlin": 1.0 }, "geometry": { "type": "Point", "coordinates": [ -40.35443240064604, -20.427823782902802, 0.0 ] } },
{ "type": "Feature", "properties": { "fid": 8435, "handle": 689956, "block": -1, "etype": 19, "space": 0, "layer": "N-QUADRAS", "olinetype": "bylayer", "linetype": "", "color": "0,0,0,255", "ocolor": 256, "color24": -1, "transparency": 0, "lweight": -1, "linewidth": 0.0, "ltscale": 1.0, "visible": 1, "thickness": 0.0, "ext": "(3:0,0,1)", "height": 6.7876500276883824, "text": "25", "angle": -0.2085529023541009, "widthscale": 0.0, "oblique": 0.0, "style": "Legend", "textgen": 1, "alignh": 0, "alignv": 1, "interlin": 1.0 }, "geometry": { "type": "Point", "coordinates": [ -40.358826561177956, -20.43050848896679, 0.0 ] } },
{ "type": "Feature", "properties": { "fid": 8436, "handle": 690090, "block": -1, "etype": 19, "space": 0, "layer": "N-QUADRAS", "olinetype": "bylayer", "linetype": "", "color": "0,0,0,255", "ocolor": 256, "color24": -1, "transparency": 0, "lweight": -1, "linewidth": 0.0, "ltscale": 1.0, "visible": 1, "thickness": 0.0, "ext": "(3:0,0,1)", "height": 6.7876500276883824, "text": "45", "angle": -0.20855290235409452, "widthscale": 0.0, "oblique": 0.0, "style": "Legend", "textgen": 1, "alignh": 0, "alignv": 1, "interlin": 1.0 }, "geometry": { "type": "Point", "coordinates": [ -40.357625735045808, -20.429772960974081, 0.0 ] } },
{ "type": "Feature", "properties": { "fid": 8437, "handle": 690133, "block": -1, "etype": 19, "space": 0, "layer": "N-QUADRAS", "olinetype": "bylayer", "linetype": "", "color": "0,0,0,255", "ocolor": 256, "color24": -1, "transparency": 0, "lweight": -1, "linewidth": 0.0, "ltscale": 1.0, "visible": 1, "thickness": 0.0, "ext": "(3:0,0,1)", "height": 6.7876500276883824, "text": "6", "angle": -0.20855290235409457, "widthscale": 0.0, "oblique": 0.0, "style": "Legend", "textgen": 1, "alignh": 0, "alignv": 1, "interlin": 1.0 }, "geometry": { "type": "Point", "coordinates": [ -40.359601488502918, -20.430998484710017, 0.0 ] } },
{ "type": "Feature", "properties": { "fid": 8448, "handle": 769280, "block": -1, "etype": 19, "space": 0, "layer": "N-QUADRAS", "olinetype": "bylayer", "linetype": "", "color": "0,0,0,255", "ocolor": 256, "color24": -1, "transparency": 0, "lweight": -1, "linewidth": 0.0, "ltscale": 1.0, "visible": 1, "thickness": 0.0, "ext": "(3:0,0,1)", "height": 6.8058181792877086, "text": "66", "angle": -0.070019660996289562, "widthscale": 0.0, "oblique": 0.0, "style": "Legend", "textgen": 1, "alignh": 0, "alignv": 1, "interlin": 1.0 }, "geometry": { "type": "Point", "coordinates": [ -40.35717873735306, -20.42790135122387, 0.0 ] } },
{ "type": "Feature", "properties": { "fid": 9950, "handle": 689650, "block": -1, "etype": 19, "space": 0, "layer": "N-QUADRAS", "olinetype": "bylayer", "linetype": "", "color": "0,0,0,255", "ocolor": 256, "color24": -1, "transparency": 0, "lweight": -1, "linewidth": 0.0, "ltscale": 1.0, "visible": 1, "thickness": 0.0, "ext": "(3:0,0,1)", "height": 6.7876500276883824, "text": "63", "angle": -0.20855290235409457, "widthscale": 0.0, "oblique": 0.0, "style": "Legend", "textgen": 1, "alignh": 0, "alignv": 1, "interlin": 1.0 }, "geometry": { "type": "Point", "coordinates": [ -40.355995236227074, -20.429578679181805, 0.0 ] } },
{ "type": "Feature", "properties": { "fid": 9951, "handle": 689650, "block": -1, "etype": 19, "space": 0, "layer": "N-QUADRAS", "olinetype": "bylayer", "linetype": "", "color": "0,0,0,255", "ocolor": 256, "color24": -1, "transparency": 0, "lweight": -1, "linewidth": 0.0, "ltscale": 1.0, "visible": 1, "thickness": 0.0, "ext": "(3:0,0,1)", "height": 6.7876500276883824, "text": "82", "angle": -0.20855290235409457, "widthscale": 0.0, "oblique": 0.0, "style": "Legend", "textgen": 1, "alignh": 0, "alignv": 1, "interlin": 1.0 }, "geometry": { "type": "Point", "coordinates": [ -40.35478680052406, -20.428847151764028, 0.0 ] } },
{ "type": "Feature", "properties": { "fid": 9952, "handle": 689650, "block": -1, "etype": 19, "space": 0, "layer": "N-QUADRAS", "olinetype": "bylayer", "linetype": "", "color": "0,0,0,255", "ocolor": 256, "color24": -1, "transparency": 0, "lweight": -1, "linewidth": 0.0, "ltscale": 1.0, "visible": 1, "thickness": 0.0, "ext": "(3:0,0,1)", "height": 6.7876500276883824, "text": "81", "angle": -0.20855290235409457, "widthscale": 0.0, "oblique": 0.0, "style": "Legend", "textgen": 1, "alignh": 0, "alignv": 1, "interlin": 1.0 }, "geometry": { "type": "Point", "coordinates": [ -40.354401684860754, -20.429446468686283, 0.0 ] } },
{ "type": "Feature", "properties": { "fid": 9953, "handle": 689650, "block": -1, "etype": 19, "space": 0, "layer": "N-QUADRAS", "olinetype": "bylayer", "linetype": "", "color": "0,0,0,255", "ocolor": 256, "color24": -1, "transparency": 0, "lweight": -1, "linewidth": 0.0, "ltscale": 1.0, "visible": 1, "thickness": 0.0, "ext": "(3:0,0,1)", "height": 6.7876500276883824, "text": "23", "angle": -0.20855290235409457, "widthscale": 0.0, "oblique": 0.0, "style": "Legend", "textgen": 1, "alignh": 0, "alignv": 1, "interlin": 1.0 }, "geometry": { "type": "Point", "coordinates": [ -40.35803666988631, -20.431638910816229, 0.0 ] } }
]
}
