{
"type": "FeatureCollection",
"name": "nome_ruas_web_4326",
"crs": { "type": "name", "properties": { "name": "urn:ogc:def:crs:OGC:1.3:CRS84" } },
"features": [
{ "type": "Feature", "properties": { "fid": 8323, "handle": 687654, "block": -1, "etype": 25, "space": 0, "layer": "N-RUAS", "olinetype": "bylayer", "linetype": "", "color": "38,153,0,255", "ocolor": 256, "color24": -1, "transparency": 0, "lweight": -1, "linewidth": 0.0, "ltscale": 1.0, "visible": 1, "thickness": 0.0, "ext": "(3:0,0,1)", "height": 7.9334823560782377, "text": "Avenida Intermunicipal", "angle": 33.170136899482344, "widthscale": 1.0, "oblique": 0.0, "style": "style1", "textgen": 0, "alignh": 0, "alignv": 0, "interlin": -1.0 }, "geometry": { "type": "Point", "coordinates": [ -40.35746926066993, -20.428587496170273, 0.0 ] } },
{ "type": "Feature", "properties": { "fid": 8324, "handle": 687655, "block": -1, "etype": 25, "space": 0, "layer": "N-RUAS", "olinetype": "bylayer", "linetype": "", "color": "38,153,0,255", "ocolor": 256, "color24": -1, "transparency": 0, "lweight": -1, "linewidth": 0.0, "ltscale": 1.0, "visible": 1, "thickness": 0.0, "ext": "(3:0,0,1)", "height": 7.7503930823877463, "text": "Rua Agosto", "angle": 33.170136895492938, "widthscale": 1.0, "oblique": 0.0, "style": "style1", "textgen": 0, "alignh": 0, "alignv": 0, "interlin": -1.0 }, "geometry": { "type": "Point", "coordinates": [ -40.357858112802951, -20.428019078622761, 0.0 ] } },
{ "type": "Feature", "properties": { "fid": 8325, "handle": 687656, "block": -1, "etype": 25, "space": 0, "layer": "N-RUAS", "olinetype": "bylayer", "linetype": "", "color": "38,153,0,255", "ocolor": 256, "color24": -1, "transparency": 0, "lweight": -1, "linewidth": 0.0, "ltscale": 1.0, "visible": 1, "thickness": 0.0, "ext": "(3:0,0,1)", "height": 7.7503930823877463, "text": "Rua Setembro", "angle": 33.170136895492938, "widthscale": 1.0, "oblique": 0.0, "style": "style1", "textgen": 0, "alignh": 0, "alignv": 0, "interlin": -1.0 }, "geometry": { "type": "Point", "coordinates": [ -40.358224948735376, -20.42748128208455, 0.0 ] } },
{ "type": "Feature", "properties": { "fid": 8326, "handle": 687657, "block": -1, "etype": 25, "space": 0, "layer": "N-RUAS", "olinetype": "bylayer", "linetype": "", "color": "38,153,0,255", "ocolor": 256, "color24": -1, "transparency": 0, "lweight": -1, "linewidth": 0.0, "ltscale": 1.0, "visible": 1, "thickness": 0.0, "ext": "(3:0,0,1)", "height": 7.7503930823877463, "text": "Rua Outubro", "angle": 33.170136895492938, "widthscale": 1.0, "oblique": 0.0, "style": "style1", "textgen": 0, "alignh": 0, "alignv": 0, "interlin": -1.0 }, "geometry": { "type": "Point", "coordinates": [ -40.358593885557532, -20.426907956171572, 0.0 ] } },
{ "type": "Feature", "properties": { "fid": 8327, "handle": 687658, "block": -1, "etype": 25, "space": 0, "layer": "N-RUAS", "olinetype": "byblock", "linetype": "", "color": "38,153,0,255", "ocolor": 256, "color24": -1, "transparency": 0, "lweight": -1, "linewidth": 0.0, "ltscale": 1.0, "visible": 1, "thickness": 0.0, "ext": "(3:0,0,1)", "height": 7.7503930823877463, "text": "Rua Novembro", "angle": 33.170136895492938, "widthscale": 1.0, "oblique": 0.0, "style": "style1", "textgen": 0, "alignh": 0, "alignv": 0, "interlin": -1.0 }, "geometry": { "type": "Point", "coordinates": [ -40.358965892308944, -20.426318421889199, 0.0 ] } },
{ "type": "Feature", "properties": { "fid": 8328, "handle": 687659, "block": -1, "etype": 25, "space": 0, "layer": "N-RUAS", "olinetype": "byblock", "linetype": "", "color": "38,153,0,255", "ocolor": 256, "color24": -1, "transparency": 0, "lweight": -1, "linewidth": 0.0, "ltscale": 1.0, "visible": 1, "thickness": 0.0, "ext": "(3:0,0,1)", "height": 7.7503930823877463, "text": "Rua Dezembro", "angle": 33.170136895492938, "widthscale": 1.0, "oblique": 0.0, "style": "style1", "textgen": 0, "alignh": 0, "alignv": 0, "interlin": -1.0 }, "geometry": { "type": "Point", "coordinates": [ -40.359338618299937, -20.425771036319336, 0.0 ] } },
{ "type": "Feature", "properties": { "fid": 8329, "handle": 687660, "block": -1, "etype": 25, "space": 0, "layer": "N-RUAS", "olinetype": "bylayer", "linetype": "", "color": "38,153,0,255", "ocolor": 256, "color24": -1, "transparency": 0, "lweight": -1, "linewidth": 0.0, "ltscale": 1.0, "visible": 1, "thickness": 0.0, "ext": "(3:0,0,1)", "height": 7.7503930823877463, "text": "Rua Mercurio", "angle": 33.170136895492938, "widthscale": 1.0, "oblique": 0.0, "style": "style1", "textgen": 0, "alignh": 0, "alignv": 0, "interlin": -1.0 }, "geometry": { "type": "Point", "coordinates": [ -40.359725199595601, -20.42520395805052, 0.0 ] } },
{ "type": "Feature", "properties": { "fid": 8330, "handle": 687661, "block": -1, "etype": 25, "space": 0, "layer": "N-RUAS", "olinetype": "bylayer", "linetype": "", "color": "38,153,0,255", "ocolor": 256, "color24": -1, "transparency": 0, "lweight": -1, "linewidth": 0.0, "ltscale": 1.0, "visible": 1, "thickness": 0.0, "ext": "(3:0,0,1)", "height": 7.7503930823877463, "text": "Rua Vênus", "angle": 33.170136895492938, "widthscale": 1.0, "oblique": 0.0, "style": "style1", "textgen": 0, "alignh": 0, "alignv": 0, "interlin": -1.0 }, "geometry": { "type": "Point", "coordinates": [ -40.360094416003179, -20.424661057941048, 0.0 ] } },
{ "type": "Feature", "properties": { "fid": 8331, "handle": 687662, "block": -1, "etype": 25, "space": 0, "layer": "N-RUAS", "olinetype": "byblock", "linetype": "", "color": "38,153,0,255", "ocolor": 256, "color24": -1, "transparency": 0, "lweight": -1, "linewidth": 0.0, "ltscale": 1.0, "visible": 1, "thickness": 0.0, "ext": "(3:0,0,1)", "height": 7.7503930823877463, "text": "Rua Marte", "angle": 33.170136895492938, "widthscale": 1.0, "oblique": 0.0, "style": "style1", "textgen": 0, "alignh": 0, "alignv": 0, "interlin": -1.0 }, "geometry": { "type": "Point", "coordinates": [ -40.360467134128228, -20.424113670185715, 0.0 ] } },
{ "type": "Feature", "properties": { "fid": 8332, "handle": 687663, "block": -1, "etype": 25, "space": 0, "layer": "N-RUAS", "olinetype": "byblock", "linetype": "", "color": "38,153,0,255", "ocolor": 256, "color24": -1, "transparency": 0, "lweight": -1, "linewidth": 0.0, "ltscale": 1.0, "visible": 1, "thickness": 0.0, "ext": "(3:0,0,1)", "height": 7.7503930823877463, "text": "Rua Neptuno", "angle": 33.170136895492938, "widthscale": 1.0, "oblique": 0.0, "style": "style1", "textgen": 0, "alignh": 0, "alignv": 0, "interlin": -1.0 }, "geometry": { "type": "Point", "coordinates": [ -40.360839849799916, -20.423566281886654, 0.0 ] } },
{ "type": "Feature", "properties": { "fid": 8333, "handle": 687664, "block": -1, "etype": 25, "space": 0, "layer": "N-RUAS", "olinetype": "byblock", "linetype": "", "color": "38,153,0,255", "ocolor": 256, "color24": -1, "transparency": 0, "lweight": -1, "linewidth": 0.0, "ltscale": 1.0, "visible": 1, "thickness": 0.0, "ext": "(3:0,0,1)", "height": 7.7503930823877463, "text": "Rua Urano", "angle": 33.170136895492938, "widthscale": 1.0, "oblique": 0.0, "style": "style1", "textgen": 0, "alignh": 0, "alignv": 0, "interlin": -1.0 }, "geometry": { "type": "Point", "coordinates": [ -40.361222915916528, -20.423003687519593, 0.0 ] } },
{ "type": "Feature", "properties": { "fid": 8334, "handle": 687665, "block": -1, "etype": 25, "space": 0, "layer": "N-RUAS", "olinetype": "bylayer", "linetype": "", "color": "38,153,0,255", "ocolor": 256, "color24": -1, "transparency": 0, "lweight": -1, "linewidth": 0.0, "ltscale": 1.0, "visible": 1, "thickness": 0.0, "ext": "(3:0,0,1)", "height": 7.7503930823877463, "text": "Rua Saturno", "angle": 33.170136895492938, "widthscale": 1.0, "oblique": 0.0, "style": "style1", "textgen": 0, "alignh": 0, "alignv": 0, "interlin": -1.0 }, "geometry": { "type": "Point", "coordinates": [ -40.361617841296507, -20.422274046907276, 0.0 ] } },
{ "type": "Feature", "properties": { "fid": 8418, "handle": 689471, "block": -1, "etype": 25, "space": 0, "layer": "N-RUAS", "olinetype": "bylayer", "linetype": "", "color": "38,153,0,255", "ocolor": 256, "color24": -1, "transparency": 0, "lweight": -1, "linewidth": 0.0, "ltscale": 1.0, "visible": 1, "thickness": 0.0, "ext": "(3:0,0,1)", "height": 7.7503930823877463, "text": "Rua Longitude", "angle": 303.17013689173501, "widthscale": 1.0, "oblique": 0.0, "style": "style1", "textgen": 0, "alignh": 0, "alignv": 0, "interlin": -1.0 }, "geometry": { "type": "Point", "coordinates": [ -40.359332108104006, -20.431057451562893, 0.0 ] } },
{ "type": "Feature", "properties": { "fid": 8419, "handle": 689472, "block": -1, "etype": 25, "space": 0, "layer": "N-RUAS", "olinetype": "bylayer", "linetype": "", "color": "38,153,0,255", "ocolor": 256, "color24": -1, "transparency": 0, "lweight": -1, "linewidth": 0.0, "ltscale": 1.0, "visible": 1, "thickness": 0.0, "ext": "(3:0,0,1)", "height": 7.7503930823877463, "text": "Rua Oriental", "angle": 303.17013689173501, "widthscale": 1.0, "oblique": 0.0, "style": "style1", "textgen": 0, "alignh": 0, "alignv": 0, "interlin": -1.0 }, "geometry": { "type": "Point", "coordinates": [ -40.357954310835765, -20.430560652662457, 0.0 ] } },
{ "type": "Feature", "properties": { "fid": 8420, "handle": 689474, "block": -1, "etype": 25, "space": 0, "layer": "N-RUAS", "olinetype": "bylayer", "linetype": "", "color": "38,153,0,255", "ocolor": 256, "color24": -1, "transparency": 0, "lweight": -1, "linewidth": 0.0, "ltscale": 1.0, "visible": 1, "thickness": 0.0, "ext": "(3:0,0,1)", "height": 7.7503930823877463, "text": "Rua Ocidental", "angle": 303.17013689173501, "widthscale": 1.0, "oblique": 0.0, "style": "style1", "textgen": 0, "alignh": 0, "alignv": 0, "interlin": -1.0 }, "geometry": { "type": "Point", "coordinates": [ -40.355536418360124, -20.429088619447416, 0.0 ] } },
{ "type": "Feature", "properties": { "fid": 8421, "handle": 689475, "block": -1, "etype": 25, "space": 0, "layer": "N-RUAS", "olinetype": "bylayer", "linetype": "", "color": "38,153,0,255", "ocolor": 256, "color24": -1, "transparency": 0, "lweight": -1, "linewidth": 0.0, "ltscale": 1.0, "visible": 1, "thickness": 0.0, "ext": "(3:0,0,1)", "height": 7.7503930823877463, "text": "Rua Latitude", "angle": 303.17013689173501, "widthscale": 1.0, "oblique": 0.0, "style": "style1", "textgen": 0, "alignh": 0, "alignv": 0, "interlin": -1.0 }, "geometry": { "type": "Point", "coordinates": [ -40.354349224770175, -20.428376628734721, 0.0 ] } },
{ "type": "Feature", "properties": { "fid": 8434, "handle": 689846, "block": -1, "etype": 25, "space": 0, "layer": "N-RUAS", "olinetype": "bylayer", "linetype": "", "color": "38,153,0,255", "ocolor": 256, "color24": -1, "transparency": 0, "lweight": -1, "linewidth": 0.0, "ltscale": 1.0, "visible": 1, "thickness": 0.0, "ext": "(3:0,0,1)", "height": 7.7503930823877463, "text": "Rua Julho", "angle": 33.17013698051889, "widthscale": 1.0, "oblique": 0.0, "style": "style1", "textgen": 0, "alignh": 0, "alignv": 0, "interlin": -1.0 }, "geometry": { "type": "Point", "coordinates": [ -40.356967357579528, -20.429099102550861, 0.0 ] } },
{ "type": "Feature", "properties": { "fid": 8438, "handle": 704820, "block": -1, "etype": 25, "space": 0, "layer": "N-RUAS", "olinetype": "bylayer", "linetype": "", "color": "38,153,0,255", "ocolor": 256, "color24": -1, "transparency": 0, "lweight": -1, "linewidth": 0.0, "ltscale": 1.0, "visible": 1, "thickness": 0.0, "ext": "(3:0,0,1)", "height": 7.7503930823877463, "text": "Rua Meriodinal", "angle": 303.17013689173501, "widthscale": 1.0, "oblique": 0.0, "style": "style1", "textgen": 0, "alignh": 0, "alignv": 0, "interlin": -1.0 }, "geometry": { "type": "Point", "coordinates": [ -40.356884700643171, -20.429619782902112, 0.0 ] } },
{ "type": "Feature", "properties": { "fid": 8449, "handle": 771067, "block": -1, "etype": 25, "space": 0, "layer": "N-RUAS", "olinetype": "bylayer", "linetype": "", "color": "38,153,0,255", "ocolor": 256, "color24": -1, "transparency": 0, "lweight": -1, "linewidth": 0.0, "ltscale": 1.0, "visible": 1, "thickness": 0.0, "ext": "(3:0,0,1)", "height": 7.7503930823877463, "text": "Rua Junho", "angle": 33.17013698051889, "widthscale": 1.0, "oblique": 0.0, "style": "style1", "textgen": 0, "alignh": 0, "alignv": 0, "interlin": -1.0 }, "geometry": { "type": "Point", "coordinates": [ -40.35658889036263, -20.429638090119653, 0.0 ] } },
{ "type": "Feature", "properties": { "fid": 8450, "handle": 771079, "block": -1, "etype": 25, "space": 0, "layer": "N-RUAS", "olinetype": "bylayer", "linetype": "", "color": "38,153,0,255", "ocolor": 256, "color24": -1, "transparency": 0, "lweight": -1, "linewidth": 0.0, "ltscale": 1.0, "visible": 1, "thickness": 0.0, "ext": "(3:0,0,1)", "height": 7.7503930823877463, "text": "Rua Longitude", "angle": 303.17013689173501, "widthscale": 1.0, "oblique": 0.0, "style": "style1", "textgen": 0, "alignh": 0, "alignv": 0, "interlin": -1.0 }, "geometry": { "type": "Point", "coordinates": [ -40.362590938355098, -20.426320011532805, 0.0 ] } },
{ "type": "Feature", "properties": { "fid": 8451, "handle": 771080, "block": -1, "etype": 25, "space": 0, "layer": "N-RUAS", "olinetype": "bylayer", "linetype": "", "color": "38,153,0,255", "ocolor": 256, "color24": -1, "transparency": 0, "lweight": -1, "linewidth": 0.0, "ltscale": 1.0, "visible": 1, "thickness": 0.0, "ext": "(3:0,0,1)", "height": 7.7503930823877463, "text": "Rua Ocidental", "angle": 303.17013689173501, "widthscale": 1.0, "oblique": 0.0, "style": "style1", "textgen": 0, "alignh": 0, "alignv": 0, "interlin": -1.0 }, "geometry": { "type": "Point", "coordinates": [ -40.358798802560372, -20.424349400166186, 0.0 ] } },
{ "type": "Feature", "properties": { "fid": 8452, "handle": 771081, "block": -1, "etype": 25, "space": 0, "layer": "N-RUAS", "olinetype": "bylayer", "linetype": "", "color": "38,153,0,255", "ocolor": 256, "color24": -1, "transparency": 0, "lweight": -1, "linewidth": 0.0, "ltscale": 1.0, "visible": 1, "thickness": 0.0, "ext": "(3:0,0,1)", "height": 7.7503930823877463, "text": "Rua Latitude", "angle": 303.17013689173501, "widthscale": 1.0, "oblique": 0.0, "style": "style1", "textgen": 0, "alignh": 0, "alignv": 0, "interlin": -1.0 }, "geometry": { "type": "Point", "coordinates": [ -40.35758061477712, -20.423618860681586, 0.0 ] } },
{ "type": "Feature", "properties": { "fid": 8453, "handle": 771082, "block": -1, "etype": 25, "space": 0, "layer": "N-RUAS", "olinetype": "bylayer", "linetype": "", "color": "38,153,0,255", "ocolor": 256, "color24": -1, "transparency": 0, "lweight": -1, "linewidth": 0.0, "ltscale": 1.0, "visible": 1, "thickness": 0.0, "ext": "(3:0,0,1)", "height": 7.7503930823877463, "text": "Rua Meriodinal", "angle": 303.17013689173501, "widthscale": 1.0, "oblique": 0.0, "style": "style1", "textgen": 0, "alignh": 0, "alignv": 0, "interlin": -1.0 }, "geometry": { "type": "Point", "coordinates": [ -40.360116033207738, -20.424861971379165, 0.0 ] } }
]
}
