{
"type": "FeatureCollection",
"name": "Quadras_auxiliares_web_4326",
"crs": { "type": "name", "properties": { "name": "urn:ogc:def:crs:OGC:1.3:CRS84" } },
"features": [
{ "type": "Feature", "properties": { "fid": 1 }, "geometry": { "type": "Polygon", "coordinates": [ [ [ -40.35951355121275, -20.431436675873659 ], [ -40.359231267931783, -20.431265878053665 ], [ -40.358920652844866, -20.431722032895625 ], [ -40.3592029366011, -20.431892831135563 ], [ -40.35951355121275, -20.431436675873659 ] ] ] } },
{ "type": "Feature", "properties": { "fid": 2 }, "geometry": { "type": "Polygon", "coordinates": [ [ [ -40.359118355466627, -20.431197557856859 ], [ -40.35802955544456, -20.430538761033109 ], [ -40.357718938000453, -20.43099491388503 ], [ -40.358807740158198, -20.431653712511835 ], [ -40.359118355466627, -20.431197557856859 ] ] ] } },
{ "type": "Feature", "properties": { "fid": 3 }, "geometry": { "type": "Polygon", "coordinates": [ [ [ -40.357916642720014, -20.430470441888705 ], [ -40.356827852655513, -20.429811636914913 ], [ -40.356517232854571, -20.430267787776774 ], [ -40.357606025054437, -20.430926594553682 ], [ -40.357916642720014, -20.430470441888705 ] ] ] } },
{ "type": "Feature", "properties": { "fid": 4 }, "geometry": { "type": "Polygon", "coordinates": [ [ [ -40.354279312667749, -20.428269516404889 ], [ -40.354037365238064, -20.428123110456692 ], [ -40.353726739965872, -20.428579256697265 ], [ -40.353968687869873, -20.428725663046126 ], [ -40.354279312667749, -20.428269516404889 ] ] ] } },
{ "type": "Feature", "properties": { "fid": 5 }, "geometry": { "type": "Polygon", "coordinates": [ [ [ -40.359121085823475, -20.432013709467657 ], [ -40.358837821854003, -20.431843674106748 ], [ -40.358527204509585, -20.432299828348324 ], [ -40.358809488967289, -20.432470627180397 ], [ -40.359121085823475, -20.432013709467657 ] ] ] } },
{ "type": "Feature", "properties": { "fid": 6 }, "geometry": { "type": "Polygon", "coordinates": [ [ [ -40.357523193375968, -20.43104823518425 ], [ -40.35643440060668, -20.430389427926524 ], [ -40.356123778548337, -20.430845578187881 ], [ -40.357212573452927, -20.431504387248776 ], [ -40.357523193375968, -20.43104823518425 ] ] ] } },
{ "type": "Feature", "properties": { "fid": 7 }, "geometry": { "type": "Polygon", "coordinates": [ [ [ -40.356289228919145, -20.430301586400958 ], [ -40.355200446375072, -20.429642770775306 ], [ -40.354889821897125, -20.430098918992993 ], [ -40.355978606576095, -20.430757736421903 ], [ -40.356289228919145, -20.430301586400958 ] ] ] } },
{ "type": "Feature", "properties": { "fid": 8 }, "geometry": { "type": "Polygon", "coordinates": [ [ [ -40.353885854289437, -20.428847302070373 ], [ -40.353643906258952, -20.4287008956146 ], [ -40.353333278729394, -20.429157041254395 ], [ -40.353575227234174, -20.429303448110847 ], [ -40.353885854289437, -20.428847302070373 ] ] ] } },
{ "type": "Feature", "properties": { "fid": 9 }, "geometry": { "type": "Polygon", "coordinates": [ [ [ -40.358747365395281, -20.432561858065355 ], [ -40.358465080826839, -20.432391059139793 ], [ -40.358154461343702, -20.432847212812533 ], [ -40.358436746459823, -20.433018012201924 ], [ -40.358747365395281, -20.432561858065355 ] ] ] } },
{ "type": "Feature", "properties": { "fid": 10 }, "geometry": { "type": "Polygon", "coordinates": [ [ [ -40.358352167815362, -20.432322738481794 ], [ -40.357263362525266, -20.431663937210377 ], [ -40.356952740684996, -20.432120088892923 ], [ -40.358041548110727, -20.43277889196753 ], [ -40.358352167815362, -20.432322738481794 ] ] ] } },
{ "type": "Feature", "properties": { "fid": 11 }, "geometry": { "type": "Polygon", "coordinates": [ [ [ -40.357150449254441, -20.431595617604756 ], [ -40.356061653922801, -20.43093680818324 ], [ -40.355751029725774, -20.43139295787547 ], [ -40.356839827192701, -20.43205176910028 ], [ -40.357150449254441, -20.431595617604756 ] ] ] } },
{ "type": "Feature", "properties": { "fid": 12 }, "geometry": { "type": "Polygon", "coordinates": [ [ [ -40.355916481893622, -20.430848966369151 ], [ -40.354827696787673, -20.43019014857963 ], [ -40.354517070171056, -20.430646296228165 ], [ -40.355605857411945, -20.431305115820994 ], [ -40.355916481893622, -20.430848966369151 ] ] ] } },
{ "type": "Feature", "properties": { "fid": 13 }, "geometry": { "type": "Polygon", "coordinates": [ [ [ -40.354714786255983, -20.430121826312266 ], [ -40.353626011108254, -20.429463000374373 ], [ -40.353315382135705, -20.42991914603255 ], [ -40.354404159417989, -20.430577973773811 ], [ -40.354714786255983, -20.430121826312266 ] ] ] } },
{ "type": "Feature", "properties": { "fid": 14 }, "geometry": { "type": "Polygon", "coordinates": [ [ [ -40.353513101609281, -20.429394677262 ], [ -40.353271153009629, -20.429248270325385 ], [ -40.352960523341459, -20.42970441539585 ], [ -40.353202472415404, -20.429850822733197 ], [ -40.353513101609281, -20.429394677262 ] ] ] } },
{ "type": "Feature", "properties": { "fid": 15 }, "geometry": { "type": "Polygon", "coordinates": [ [ [ -40.358374622460047, -20.433109242973082 ], [ -40.358092337233188, -20.43293844349018 ], [ -40.357781715611175, -20.433394596594027 ], [ -40.35806400139181, -20.433565396544473 ], [ -40.358374622460047, -20.433109242973082 ] ] ] } },
{ "type": "Feature", "properties": { "fid": 16 }, "geometry": { "type": "Polygon", "coordinates": [ [ [ -40.357979423955896, -20.432870122607799 ], [ -40.356890616103065, -20.43221131917252 ], [ -40.356579992123955, -20.432667470286077 ], [ -40.357668802112464, -20.433326275524639 ], [ -40.357979423955896, -20.432870122607799 ] ] ] } },
{ "type": "Feature", "properties": { "fid": 17 }, "geometry": { "type": "Polygon", "coordinates": [ [ [ -40.356777702566482, -20.432142999342464 ], [ -40.355688904672519, -20.431484187757029 ], [ -40.355378278336694, -20.431940336880242 ], [ -40.35646707836591, -20.432599150269006 ], [ -40.356777702566482, -20.432142999342464 ] ] ] } },
{ "type": "Feature", "properties": { "fid": 18 }, "geometry": { "type": "Polygon", "coordinates": [ [ [ -40.355543732301598, -20.431396345654559 ], [ -40.35445494463378, -20.430737525701073 ], [ -40.354144315878472, -20.431193672780324 ], [ -40.355233105681229, -20.431852494537193 ], [ -40.355543732301598, -20.431396345654559 ] ] ] } },
{ "type": "Feature", "properties": { "fid": 19 }, "geometry": { "type": "Polygon", "coordinates": [ [ [ -40.354342033836481, -20.430669203209266 ], [ -40.353253256127282, -20.430010375107344 ], [ -40.352942625016027, -20.43046652019623 ], [ -40.354031404859775, -20.431125350101521 ], [ -40.354342033836481, -20.430669203209266 ] ] ] } },
{ "type": "Feature", "properties": { "fid": 20 }, "geometry": { "type": "Polygon", "coordinates": [ [ [ -40.353140346362736, -20.429942051770524 ], [ -40.352898397193911, -20.429795644353007 ], [ -40.352587765387007, -20.430251788854143 ], [ -40.352829715030083, -20.430398196672421 ], [ -40.353140346362736, -20.429942051770524 ] ] ] } },
{ "type": "Feature", "properties": { "fid": 21 }, "geometry": { "type": "Polygon", "coordinates": [ [ [ -40.358001876964259, -20.433656627201856 ], [ -40.357719591072915, -20.433485827157938 ], [ -40.357408967311997, -20.433941979692833 ], [ -40.357691253757075, -20.434112780204305 ], [ -40.358001876964259, -20.433656627201856 ] ] ] } },
{ "type": "Feature", "properties": { "fid": 22 }, "geometry": { "type": "Polygon", "coordinates": [ [ [ -40.357606677529859, -20.433417506051118 ], [ -40.356517871160982, -20.432758702900461 ], [ -40.356207244821505, -20.43321485465065 ], [ -40.35729604698794, -20.433873668031477 ], [ -40.357606677529859, -20.433417506051118 ] ] ] } },
{ "type": "Feature", "properties": { "fid": 23 }, "geometry": { "type": "Polygon", "coordinates": [ [ [ -40.35640495331193, -20.432690380397403 ], [ -40.355316152855643, -20.432031566647961 ], [ -40.355005524380935, -20.432487715202008 ], [ -40.356094326972475, -20.433146530754872 ], [ -40.35640495331193, -20.432690380397403 ] ] ] } },
{ "type": "Feature", "properties": { "fid": 24 }, "geometry": { "type": "Polygon", "coordinates": [ [ [ -40.355170980143207, -20.431943724256797 ], [ -40.354082189913498, -20.431284902139268 ], [ -40.353771559019258, -20.43174104864941 ], [ -40.354860351383856, -20.432399872570411 ], [ -40.355170980143207, -20.431943724256797 ] ] ] } },
{ "type": "Feature", "properties": { "fid": 25 }, "geometry": { "type": "Polygon", "coordinates": [ [ [ -40.353969278850521, -20.431216579423101 ], [ -40.352880498579879, -20.430557749157074 ], [ -40.352569865329741, -20.43101389367666 ], [ -40.353658647734903, -20.431672725746168 ], [ -40.353969278850521, -20.431216579423101 ] ] ] } },
{ "type": "Feature", "properties": { "fid": 26 }, "geometry": { "type": "Polygon", "coordinates": [ [ [ -40.352767588549696, -20.430489425595912 ], [ -40.35252563881172, -20.430343017697481 ], [ -40.35221500486599, -20.430799161629231 ], [ -40.35245695507821, -20.430945569928461 ], [ -40.352767588549696, -20.430489425595912 ] ] ] } },
{ "type": "Feature", "properties": { "fid": 27 }, "geometry": { "type": "Polygon", "coordinates": [ [ [ -40.357618774752254, -20.434219215836645 ], [ -40.357336488177957, -20.434048415216107 ], [ -40.357116241402601, -20.43436739121265 ], [ -40.35735213187381, -20.434615217098226 ], [ -40.357618774752254, -20.434219215836645 ] ] ] } },
{ "type": "Feature", "properties": { "fid": 28 }, "geometry": { "type": "Polygon", "coordinates": [ [ [ -40.35722356643145, -20.433980102681669 ], [ -40.356136044895152, -20.433322076321417 ], [ -40.355842415288983, -20.433774741233076 ], [ -40.356880681119272, -20.434177076148092 ], [ -40.357021957604822, -20.434277402563417 ], [ -40.35722356643145, -20.433980102681669 ] ] ] } },
{ "type": "Feature", "properties": { "fid": 29 }, "geometry": { "type": "Polygon", "coordinates": [ [ [ -40.356021846894699, -20.43325296429148 ], [ -40.35493303316786, -20.432594155414868 ], [ -40.354507395521495, -20.4332217296812 ], [ -40.355716525804688, -20.433714467450983 ], [ -40.356021846894699, -20.43325296429148 ] ] ] } },
{ "type": "Feature", "properties": { "fid": 30 }, "geometry": { "type": "Polygon", "coordinates": [ [ [ -40.354791857918535, -20.432507491102523 ], [ -40.353705868738139, -20.431844567751764 ], [ -40.353263689145699, -20.432487590441955 ], [ -40.354352844079756, -20.433146538368185 ], [ -40.354791857918535, -20.432507491102523 ] ] ] } },
{ "type": "Feature", "properties": { "fid": 31 }, "geometry": { "type": "Polygon", "coordinates": [ [ [ -40.353586170799055, -20.431779178593779 ], [ -40.352497375858881, -20.431120322414444 ], [ -40.351864941299688, -20.432046564173028 ], [ -40.352570737602313, -20.432136548457652 ], [ -40.353144067321701, -20.432428363008963 ], [ -40.353586170799055, -20.431779178593779 ] ] ] } },
{ "type": "Feature", "properties": { "fid": 32 }, "geometry": { "type": "Polygon", "coordinates": [ [ [ -40.352142523355511, -20.430905595145063 ], [ -40.351831887211439, -20.431361738491582 ], [ -40.352073830329921, -20.431508142638599 ], [ -40.352384465999734, -20.431051998891267 ], [ -40.352142523355511, -20.430905595145063 ] ] ] } },
{ "type": "Feature", "properties": { "fid": 33 }, "geometry": { "type": "Polygon", "coordinates": [ [ [ -40.352011702807644, -20.431599371448449 ], [ -40.351769759768722, -20.431452967103944 ], [ -40.351320963866819, -20.432057820402232 ], [ -40.351663955853084, -20.432056330031344 ], [ -40.352011702807644, -20.431599371448449 ] ] ] } }
]
}
