{
"type": "FeatureCollection",
"name": "Ruas_web_4326",
"crs": { "type": "name", "properties": { "name": "urn:ogc:def:crs:OGC:1.3:CRS84" } },
"features": [
{ "type": "Feature", "properties": { "fid": 1, "id": 1 }, "geometry": { "type": "Polygon", "coordinates": [ [ [ -40.364522973793854, -20.424161688416387 ], [ -40.359063276272607, -20.420824269097086 ], [ -40.351320963866819, -20.432057820402232 ], [ -40.351663955853084, -20.432056330031344 ], [ -40.351864941299688, -20.432046564173028 ], [ -40.352570737602313, -20.432136548457652 ], [ -40.353144067321701, -20.432428363008963 ], [ -40.353263689145699, -20.432487590441955 ], [ -40.354352844079756, -20.433146538368185 ], [ -40.354507395521495, -20.4332217296812 ], [ -40.355716525804688, -20.433714467450983 ], [ -40.355842415288983, -20.433774741233076 ], [ -40.356880681119272, -20.434177076148092 ], [ -40.357021957604822, -20.434277402563417 ], [ -40.35735213187381, -20.434615217098226 ], [ -40.364522973793854, -20.424161688416387 ] ] ] } }
]
}
