{
"type": "FeatureCollection",
"name": "Pracas_web_4326",
"crs": { "type": "name", "properties": { "name": "urn:ogc:def:crs:OGC:1.3:CRS84" } },
"features": [
{ "type": "Feature", "properties": { "fid": 1, "id": 1 }, "geometry": { "type": "Polygon", "coordinates": [ [ [ -40.356632785156208, -20.427327800366577 ], [ -40.355954797971513, -20.428313051042743 ], [ -40.354909617414926, -20.427673935078875 ], [ -40.355587608972989, -20.426688688186044 ], [ -40.356632785156208, -20.427327800366577 ] ] ] } }
]
}
